CCSDS_OMM_VERS = 2.0
CREATION_DATE  = 
ORIGINATOR     = 

OBJECT_NAME    = STARLINK-36976
OBJECT_ID      = 2026-041AC
CENTER_NAME    = EARTH
REF_FRAME      = TEME
TIME_SYSTEM    = UTC
MEAN_ELEMENT_THEORY = SGP/SGP4

EPOCH          = 2026-03-11T02:00:03.000384
MEAN_MOTION    = 15.90945321
ECCENTRICITY   = .0000804
INCLINATION    = 53.1584
RA_OF_ASC_NODE = 55.0276
ARG_OF_PERICENTER = 98.8504
MEAN_ANOMALY   = 142.0391

EPHEMERIS_TYPE = 0
CLASSIFICATION_TYPE = U
NORAD_CAT_ID   = 68066
ELEMENT_SET_NO = 999
REV_AT_EPOCH   = 260
BSTAR          = -.56521E-2
MEAN_MOTION_DOT = -.1807788E-1
MEAN_MOTION_DDOT = .89245E-3

CCSDS_OMM_VERS = 2.0
CREATION_DATE  = 
ORIGINATOR     = 

OBJECT_NAME    = STARLINK-36929
OBJECT_ID      = 2026-041AD
CENTER_NAME    = EARTH
REF_FRAME      = TEME
TIME_SYSTEM    = UTC
MEAN_ELEMENT_THEORY = SGP/SGP4

EPOCH          = 2026-03-11T02:00:03.000384
MEAN_MOTION    = 15.90692533
ECCENTRICITY   = .0000726
INCLINATION    = 53.1584
RA_OF_ASC_NODE = 55.0402
ARG_OF_PERICENTER = 95.1102
MEAN_ANOMALY   = 139.7439

EPHEMERIS_TYPE = 0
CLASSIFICATION_TYPE = U
NORAD_CAT_ID   = 68067
ELEMENT_SET_NO = 999
REV_AT_EPOCH   = 260
BSTAR          = -.57104E-2
MEAN_MOTION_DOT = -.1597401E-1
MEAN_MOTION_DDOT = 0

CCSDS_OMM_VERS = 2.0
CREATION_DATE  = 
ORIGINATOR     = 

OBJECT_NAME    = STARLINK-36990
OBJECT_ID      = 2026-041AE
CENTER_NAME    = EARTH
REF_FRAME      = TEME
TIME_SYSTEM    = UTC
MEAN_ELEMENT_THEORY = SGP/SGP4

EPOCH          = 2026-03-11T02:00:03.000384
MEAN_MOTION    = 15.91058353
ECCENTRICITY   = .0000731
INCLINATION    = 53.1583
RA_OF_ASC_NODE = 55.0204
ARG_OF_PERICENTER = 96.4416
MEAN_ANOMALY   = 147.8280

EPHEMERIS_TYPE = 0
CLASSIFICATION_TYPE = U
NORAD_CAT_ID   = 68068
ELEMENT_SET_NO = 999
REV_AT_EPOCH   = 260
BSTAR          = -.56811E-2
MEAN_MOTION_DOT = -.182733E-1
MEAN_MOTION_DDOT = .91137E-3

CCSDS_OMM_VERS = 2.0
CREATION_DATE  = 
ORIGINATOR     = 

OBJECT_NAME    = STARLINK-36766
OBJECT_ID      = 2026-042A
CENTER_NAME    = EARTH
REF_FRAME      = TEME
TIME_SYSTEM    = UTC
MEAN_ELEMENT_THEORY = SGP/SGP4

EPOCH          = 2026-03-11T02:00:03.000384
MEAN_MOTION    = 15.97451813
ECCENTRICITY   = .000072
INCLINATION    = 53.1603
RA_OF_ASC_NODE = 188.1562
ARG_OF_PERICENTER = 86.6145
MEAN_ANOMALY   = 76.4934

EPHEMERIS_TYPE = 0
CLASSIFICATION_TYPE = U
NORAD_CAT_ID   = 68069
ELEMENT_SET_NO = 999
REV_AT_EPOCH   = 226
BSTAR          = -.28778E-2
MEAN_MOTION_DOT = -.130712E-1
MEAN_MOTION_DDOT = .52576E-3

CCSDS_OMM_VERS = 2.0
CREATION_DATE  = 
ORIGINATOR     = 

OBJECT_NAME    = STARLINK-36823
OBJECT_ID      = 2026-042B
CENTER_NAME    = EARTH
REF_FRAME      = TEME
TIME_SYSTEM    = UTC
MEAN_ELEMENT_THEORY = SGP/SGP4

EPOCH          = 2026-03-11T02:00:03.000384
MEAN_MOTION    = 15.97575218
ECCENTRICITY   = .000082
INCLINATION    = 53.1598
RA_OF_ASC_NODE = 188.1521
ARG_OF_PERICENTER = 97.2675
MEAN_ANOMALY   = 67.7982

EPHEMERIS_TYPE = 0
CLASSIFICATION_TYPE = U
NORAD_CAT_ID   = 68070
ELEMENT_SET_NO = 999
REV_AT_EPOCH   = 226
BSTAR          = -.28476E-2
MEAN_MOTION_DOT = -.1302376E-1
MEAN_MOTION_DDOT = .52296E-3

CCSDS_OMM_VERS = 2.0
CREATION_DATE  = 
ORIGINATOR     = 

OBJECT_NAME    = STARLINK-36970
OBJECT_ID      = 2026-042C
CENTER_NAME    = EARTH
REF_FRAME      = TEME
TIME_SYSTEM    = UTC
MEAN_ELEMENT_THEORY = SGP/SGP4

EPOCH          = 2026-03-11T02:00:03.000384
MEAN_MOTION    = 15.97818570
ECCENTRICITY   = .0001042
INCLINATION    = 53.1603
RA_OF_ASC_NODE = 188.1441
ARG_OF_PERICENTER = 65.0069
MEAN_ANOMALY   = 103.8647

EPHEMERIS_TYPE = 0
CLASSIFICATION_TYPE = U
NORAD_CAT_ID   = 68071
ELEMENT_SET_NO = 999
REV_AT_EPOCH   = 227
BSTAR          = -.28081E-2
MEAN_MOTION_DOT = -.1301817E-1
MEAN_MOTION_DDOT = .52389E-3

CCSDS_OMM_VERS = 2.0
CREATION_DATE  = 
ORIGINATOR     = 

OBJECT_NAME    = STARLINK-36972
OBJECT_ID      = 2026-042D
CENTER_NAME    = EARTH
REF_FRAME      = TEME
TIME_SYSTEM    = UTC
MEAN_ELEMENT_THEORY = SGP/SGP4

EPOCH          = 2026-03-11T02:00:03.000384
MEAN_MOTION    = 15.97685758
ECCENTRICITY   = .0000757
INCLINATION    = 53.1602
RA_OF_ASC_NODE = 188.1487
ARG_OF_PERICENTER = 90.5299
MEAN_ANOMALY   = 76.2137

EPHEMERIS_TYPE = 0
CLASSIFICATION_TYPE = U
NORAD_CAT_ID   = 68072
ELEMENT_SET_NO = 999
REV_AT_EPOCH   = 227
BSTAR          = -.2821E-2
MEAN_MOTION_DOT = -.1298198E-1
MEAN_MOTION_DDOT = .52051E-3

CCSDS_OMM_VERS = 2.0
CREATION_DATE  = 
ORIGINATOR     = 

OBJECT_NAME    = STARLINK-37074
OBJECT_ID      = 2026-042E
CENTER_NAME    = EARTH
REF_FRAME      = TEME
TIME_SYSTEM    = UTC
MEAN_ELEMENT_THEORY = SGP/SGP4

EPOCH          = 2026-03-11T02:00:03.000384
MEAN_MOTION    = 15.97945162
ECCENTRICITY   = .0000796
INCLINATION    = 53.1603
RA_OF_ASC_NODE = 188.1404
ARG_OF_PERICENTER = 74.6773
MEAN_ANOMALY   = 96.1371

EPHEMERIS_TYPE = 0
CLASSIFICATION_TYPE = U
NORAD_CAT_ID   = 68073
ELEMENT_SET_NO = 999
REV_AT_EPOCH   = 227
BSTAR          = -.27864E-2
MEAN_MOTION_DOT = -.1300851E-1
MEAN_MOTION_DDOT = .52387E-3

CCSDS_OMM_VERS = 2.0
CREATION_DATE  = 
ORIGINATOR     = 

OBJECT_NAME    = STARLINK-37045
OBJECT_ID      = 2026-042F
CENTER_NAME    = EARTH
REF_FRAME      = TEME
TIME_SYSTEM    = UTC
MEAN_ELEMENT_THEORY = SGP/SGP4

EPOCH          = 2026-03-11T02:00:03.000384
MEAN_MOTION    = 15.98070397
ECCENTRICITY   = .0000937
INCLINATION    = 53.1601
RA_OF_ASC_NODE = 188.1358
ARG_OF_PERICENTER = 73.4343
MEAN_ANOMALY   = 99.4685

EPHEMERIS_TYPE = 0
CLASSIFICATION_TYPE = U
NORAD_CAT_ID   = 68074
ELEMENT_SET_NO = 999
REV_AT_EPOCH   = 227
BSTAR          = -.2756E-2
MEAN_MOTION_DOT = -.1295766E-1
MEAN_MOTION_DDOT = .52083E-3

CCSDS_OMM_VERS = 2.0
CREATION_DATE  = 
ORIGINATOR     = 

OBJECT_NAME    = STARLINK-37026
OBJECT_ID      = 2026-042G
CENTER_NAME    = EARTH
REF_FRAME      = TEME
TIME_SYSTEM    = UTC
MEAN_ELEMENT_THEORY = SGP/SGP4

EPOCH          = 2026-03-11T02:00:03.000384
MEAN_MOTION    = 15.98192910
ECCENTRICITY   = .0000896
INCLINATION    = 53.1601
RA_OF_ASC_NODE = 188.1314
ARG_OF_PERICENTER = 77.6848
MEAN_ANOMALY   = 97.3599

EPHEMERIS_TYPE = 0
CLASSIFICATION_TYPE = U
NORAD_CAT_ID   = 68075
ELEMENT_SET_NO = 999
REV_AT_EPOCH   = 227
BSTAR          = -.26936E-2
MEAN_MOTION_DOT = -.1275366E-1
MEAN_MOTION_DDOT = .50664E-3

CCSDS_OMM_VERS = 2.0
CREATION_DATE  = 
ORIGINATOR     = 

OBJECT_NAME    = STARLINK-37023
OBJECT_ID      = 2026-042H
CENTER_NAME    = EARTH
REF_FRAME      = TEME
TIME_SYSTEM    = UTC
MEAN_ELEMENT_THEORY = SGP/SGP4

EPOCH          = 2026-03-11T02:00:03.000384
MEAN_MOTION    = 15.98331897
ECCENTRICITY   = .0000864
INCLINATION    = 53.1600
RA_OF_ASC_NODE = 188.1274
ARG_OF_PERICENTER = 78.5436
MEAN_ANOMALY   = 98.4588

EPHEMERIS_TYPE = 0
CLASSIFICATION_TYPE = U
NORAD_CAT_ID   = 68076
ELEMENT_SET_NO = 999
REV_AT_EPOCH   = 227
BSTAR          = -.27276E-2
MEAN_MOTION_DOT = -.1301226E-1
MEAN_MOTION_DDOT = .52628E-3

CCSDS_OMM_VERS = 2.0
CREATION_DATE  = 
ORIGINATOR     = 

OBJECT_NAME    = STARLINK-37036
OBJECT_ID      = 2026-042J
CENTER_NAME    = EARTH
REF_FRAME      = TEME
TIME_SYSTEM    = UTC
MEAN_ELEMENT_THEORY = SGP/SGP4

EPOCH          = 2026-03-11T02:00:03.000384
MEAN_MOTION    = 15.98441345
ECCENTRICITY   = .0001085
INCLINATION    = 53.1603
RA_OF_ASC_NODE = 188.1239
ARG_OF_PERICENTER = 68.2242
MEAN_ANOMALY   = 110.5012

EPHEMERIS_TYPE = 0
CLASSIFICATION_TYPE = U
NORAD_CAT_ID   = 68077
ELEMENT_SET_NO = 999
REV_AT_EPOCH   = 227
BSTAR          = -.2692E-2
MEAN_MOTION_DOT = -.1292271E-1
MEAN_MOTION_DDOT = .5203E-3

