STARLINK-36976          
1 68066U 26041AC  26070.08336806 -.01807788  89245-3 -56521-2 0  9991
2 68066  53.1584  55.0276 0000804  98.8504 142.0391 15.90945321  2602
STARLINK-36929          
1 68067U 26041AD  26070.08336806 -.01597401  00000+0 -57104-2 0  9996
2 68067  53.1584  55.0402 0000726  95.1102 139.7439 15.90692533  2601
STARLINK-36990          
1 68068U 26041AE  26070.08336806 -.01827330  91137-3 -56811-2 0  9993
2 68068  53.1583  55.0204 0000731  96.4416 147.8280 15.91058353  2600
STARLINK-36766          
1 68069U 26042A   26070.08336806 -.01307120  52576-3 -28778-2 0  9990
2 68069  53.1603 188.1562 0000720  86.6145  76.4934 15.97451813  2266
STARLINK-36823          
1 68070U 26042B   26070.08336806 -.01302376  52296-3 -28476-2 0  9994
2 68070  53.1598 188.1521 0000820  97.2675  67.7982 15.97575218  2265
STARLINK-36970          
1 68071U 26042C   26070.08336806 -.01301817  52389-3 -28081-2 0  9999
2 68071  53.1603 188.1441 0001042  65.0069 103.8647 15.97818570  2273
STARLINK-36972          
1 68072U 26042D   26070.08336806 -.01298198  52051-3 -28210-2 0  9997
2 68072  53.1602 188.1487 0000757  90.5299  76.2137 15.97685758  2270
STARLINK-37074          
1 68073U 26042E   26070.08336806 -.01300851  52387-3 -27864-2 0  9994
2 68073  53.1603 188.1404 0000796  74.6773  96.1371 15.97945162  2273
STARLINK-37045          
1 68074U 26042F   26070.08336806 -.01295766  52083-3 -27560-2 0  9999
2 68074  53.1601 188.1358 0000937  73.4343  99.4685 15.98070397  2271
STARLINK-37026          
1 68075U 26042G   26070.08336806 -.01275366  50664-3 -26936-2 0  9993
2 68075  53.1601 188.1314 0000896  77.6848  97.3599 15.98192910  2271
STARLINK-37023          
1 68076U 26042H   26070.08336806 -.01301226  52628-3 -27276-2 0  9999
2 68076  53.1600 188.1274 0000864  78.5436  98.4588 15.98331897  2273
STARLINK-37036          
1 68077U 26042J   26070.08336806 -.01292271  52030-3 -26920-2 0  9991
2 68077  53.1603 188.1239 0001085  68.2242 110.5012 15.98441345  2273
